{
  "norad_id": 60211,
  "name": "TIANHUI 5C",
  "history": [
    {
      "epoch": "2026-03-27T12:10:50.611872Z",
      "apogee_km": 606.5715184381443,
      "perigee_km": 604.3982153131728,
      "latitude_deg": -5.169871923798533e-05,
      "longitude_deg": 87.5705897000916,
      "height_km": 608.5017336788688,
      "semi_major_axis_km": 6983.621866875658,
      "eccentricity": 0.0001556,
      "inclination_deg": 97.8213,
      "raan_deg": 95.2228,
      "arg_perigee_deg": 89.2185,
      "mean_anomaly_deg": 270.9209,
      "mean_motion_rev_day": 14.87584648
    },
    {
      "epoch": "2026-03-30T14:26:25.772352Z",
      "apogee_km": 606.5627755219457,
      "perigee_km": 604.3769065806973,
      "latitude_deg": -5.5962251528214066e-05,
      "longitude_deg": 53.6742481836457,
      "height_km": 608.4904602657712,
      "semi_major_axis_km": 6983.606841051322,
      "eccentricity": 0.0001565,
      "inclination_deg": 97.8211,
      "raan_deg": 98.2727,
      "arg_perigee_deg": 89.4198,
      "mean_anomaly_deg": 270.7197,
      "mean_motion_rev_day": 14.87589449
    },
    {
      "epoch": "2026-03-31T13:02:28.490784Z",
      "apogee_km": 606.5580457795049,
      "perigee_km": 604.3721783184337,
      "latitude_deg": 4.554470329225856e-05,
      "longitude_deg": 74.66302870859339,
      "height_km": 608.4780408256912,
      "semi_major_axis_km": 6983.6021120489695,
      "eccentricity": 0.0001565,
      "inclination_deg": 97.821,
      "raan_deg": 99.201,
      "arg_perigee_deg": 89.0172,
      "mean_anomaly_deg": 271.1224,
      "mean_motion_rev_day": 14.8759096
    },
    {
      "epoch": "2026-04-01T13:15:22.755744Z",
      "apogee_km": 606.5530396114218,
      "perigee_km": 604.3713632209001,
      "latitude_deg": -1.678741015394383e-05,
      "longitude_deg": 71.43705681030895,
      "height_km": 608.4666872457832,
      "semi_major_axis_km": 6983.599201416161,
      "eccentricity": 0.0001562,
      "inclination_deg": 97.821,
      "raan_deg": 100.1956,
      "arg_perigee_deg": 88.571,
      "mean_anomaly_deg": 271.5685,
      "mean_motion_rev_day": 14.8759189
    },
    {
      "epoch": "2026-04-02T13:28:18.170688Z",
      "apogee_km": 606.6941600779355,
      "perigee_km": 604.3725087119683,
      "latitude_deg": -3.7816305467621235e-05,
      "longitude_deg": 68.2068741727466,
      "height_km": 608.6340685037239,
      "semi_major_axis_km": 6983.670334394951,
      "eccentricity": 0.00016622,
      "inclination_deg": 97.8214,
      "raan_deg": 101.1908,
      "arg_perigee_deg": 93.4191,
      "mean_anomaly_deg": 266.7215,
      "mean_motion_rev_day": 14.87569162
    }
  ]
}